STARLINK-4204           
1 52854U 22062AA  22179.91667824 -.00760767  00000+0 -42709-2 0  9998
2 52854  53.2175 348.6061 0002617  10.0218 300.6823 15.80511117  1301
STARLINK-4209           
1 52855U 22062AB  22179.91667824 -.00762454  00000+0 -42721-2 0  9998
2 52855  53.2175 348.6032 0002655  12.5602 299.8038 15.80556717  1308
STARLINK-4201           
1 52856U 22062AC  22179.91667824 -.00762124  00000+0 -42745-2 0  9999
2 52856  53.2175 348.6044 0002678  11.7367 299.7985 15.80534181  1307
STARLINK-4199           
1 52857U 22062AD  22179.91667824 -.00761208  00000+0 -42606-2 0  9998
2 52857  53.2175 348.6015 0002610  10.6303 302.5850 15.80576903  1302
STARLINK-4198           
1 52858U 22062AE  22179.91667824 -.00762416  00000+0 -42740-2 0  9990
2 52858  53.2175 348.6037 0002659  12.5554 299.3881 15.80545893  1300
STARLINK-4196           
1 52859U 22062AF  22179.91667824 -.00762473  00000+0 -42659-2 0  9993
2 52859  53.2175 348.6007 0002584  13.3587 300.2616 15.80589358  1302
STARLINK-4191           
1 52860U 22062AG  22179.91667824 -.00760970  00000+0 -42614-2 0  9996
2 52860  53.2175 348.6020 0002654  10.2689 302.5410 15.80565052  1308
STARLINK-4112           
1 52861U 22062AH  22179.91667824 -.00760909  00000+0 -42456-2 0  9993
2 52861  53.2175 348.5966 0002624   9.4959 306.2006 15.80643592  1302
STARLINK-4010           
1 52862U 22062AJ  22179.91667824 -.00760486  00000+0 -42519-2 0  9994
2 52862  53.2175 348.5995 0002618   9.0690 304.9761 15.80598647  1309
STARLINK-4270           
1 52863U 22062AK  22179.91667824 -.00760999  00000+0 -42505-2 0  9999
2 52863  53.2175 348.5983 0002596  10.3269 304.5363 15.80621808  1309
STARLINK-4267           
1 52864U 22062AL  22179.91667824 -.00761686  00000+0 -42568-2 0  9993
2 52864  53.2175 348.5986 0002651  11.1649 303.2941 15.80610464  1300
STARLINK-4274           
1 52865U 22062AM  22179.91667824 -.00760821  00000+0 -42407-2 0  9996
2 52865  53.2175 348.5950 0002601   9.3671 307.1507 15.80666013  1303
STARLINK-4272           
1 52866U 22062AN  22179.91667824 -.00761893  00000+0 -42537-2 0  9991
2 52866  53.2175 348.5971 0002570  11.9447 303.3328 15.80633400  1305
STARLINK-4126           
1 52867U 22062AP  22179.91667824 -.00760655  00000+0 -42354-2 0  9994
2 52867  53.2175 348.5933 0002637   9.1041 308.2481 15.80687487  1305
STARLINK-4261           
1 52868U 22062AQ  22179.91667824 -.00761134  00000+0 -42447-2 0  9991
2 52868  53.2175 348.5954 0002637  10.3559 305.7500 15.80654989  1302
STARLINK-4266           
1 52869U 22062AR  22179.91667824 -.00759434  00000+0 -42262-2 0  9997
2 52869  53.2175 348.5925 0002546   7.3004 310.4692 15.80697602  1305
STARLINK-4195           
1 52870U 22062AS  22179.91667824 -.00760945  00000+0 -42393-2 0  9993
2 52870  53.2175 348.5938 0002646   9.2080 307.7337 15.80676492  1306
STARLINK-4207           
1 52871U 22062AT  22179.91667824 -.00760497  00000+0 -42258-2 0  9996
2 52871  53.2175 348.5901 0002629   8.7414 310.2609 15.80731568  1300
STARLINK-4213           
1 52872U 22062AU  22179.91667824 -.00759437  00000+0 -42241-2 0  9991
2 52872  53.2175 348.5913 0002542   7.0849 311.1011 15.80708434  1305
STARLINK-4211           
1 52873U 22062AV  22179.91667824 -.00762059  00000+0 -42309-2 0  9991
2 52873  53.2175 348.5885 0002670  11.0338 308.8141 15.80753300  1303
STARLINK-4210           
1 52874U 22062AW  22179.91667824 -.00759921  00000+0 -42248-2 0  9998
2 52874  53.2175 348.5905 0002524   8.2739 310.3208 15.80719978  1303
STARLINK-4193           
1 52875U 22062AX  22179.91667824 -.00762035  00000+0 -42284-2 0  9999
2 52875  53.2175 348.5877 0002693  10.8372 309.4100 15.80765032  1303
STARLINK-4200           
1 52876U 22062AY  22179.91667824 -.00761638  00000+0 -42306-2 0  9993
2 52876  53.2175 348.5888 0002618  10.7632 308.6659 15.80742417  1303
STARLINK-4214           
1 52877U 22062AZ  22179.91667824 -.00761242  00000+0 -42195-2 0  9991
2 52877  53.2175 348.5862 0002668   9.0894 311.9868 15.80786267  1302
STARLINK-4171           
1 52878U 22062BA  22179.91667824 -.00761521  00000+0 -42233-2 0  9995
2 52878  53.2175 348.5864 0002694  10.4256 310.2414 15.80775215  1302
STARLINK-4139           
1 52879U 22062BB  22179.91667824 -.00761061  00000+0 -42119-2 0  9998
2 52879  53.2175 348.5837 0002629   9.1416 313.1556 15.80819888  1308
STARLINK-4186           
1 52880U 22062BC  22179.91667824 -.00762091  00000+0 -42202-2 0  9997
2 52880  53.2175 348.5839 0002644  11.1394 310.7540 15.80809057  1300
STARLINK-4192           
1 52881U 22062BD  22179.91667824 -.00762231  00000+0 -42231-2 0  9996
2 52881  53.2175 348.5853 0002777   9.8006 311.6976 15.80797198  1303
STARLINK-4181           
1 52882U 22062BE  22179.91667824 -.00761173  00000+0 -42105-2 0  9991
2 52882  53.2174 348.5823 0002658   8.9929 313.7272 15.80830209  1305
FALCON 9 DEB            
1 52883U 22062BF  22179.71659056  .00714739  11544-4  65039-3 0  9994
2 52883  53.2179 348.6431 0053976  80.3934 280.3195 16.08577472  1782
FALCON 9 DEB            
1 52884U 22062BG  22179.71258407  .00676939  11554-4  61547-3 0  9990
2 52884  53.2138 348.6092 0049048  82.1278 278.5321 16.09141234  1781
FALCON 9 DEB            
1 52885U 22062BH  22179.70375845  .00683917  11596-4  56628-3 0  9990
2 52885  53.2150 348.5430 0046401  74.6688 285.9469 16.10729883  1781
FALCON 9 DEB            
1 52886U 22062BJ  22179.76436357  .00809689  11616-4  63504-3 0  9993
2 52886  53.2166 348.2105 0046582  76.0025 284.6184 16.11446091  1795
SARAH-1                 
1 52887U 22063A   22174.76914807  .00057931  00000+0  16917-1 0  9990
2 52887  98.3930 181.8659 0001741 114.3380 245.7128 14.43706701  1277
GLOBALSTAR FM15         
1 52888U 22064A   22179.73957582 -.00000128  00000+0  00000+0 0  9992
2 52888  51.9756 196.9631 0009427 333.5440  26.4960 13.37542154  1244
2022-065A               
1 52894U 22065A   22179.95676044 -.00000045  00000+0 -12185-6 0  9998
2 52894  98.0184 330.9860 0008693 210.8736 149.1934 14.57557418  1124
2022-065B               
1 52895U 22065B   22179.95372535 -.00000119  00000+0 -16249-4 0  9992
2 52895  98.0205 330.9908 0007168 227.8466 132.2130 14.58135335  1128
KSLV-II R/B             
1 52896U 22065C   22179.93103098  .00003336  00000+0  66687-3 0  9999
2 52896  98.0696 331.0615 0004349  48.9716 311.1860 14.62505823  1113
TIANXING-1              
1 52901U 22066A   22180.16248981  .00129527  82553-5  33547-3 0  9994
2 52901  96.7421 224.7055 0011175 267.1020 171.0825 15.95018719  1120
GSAT 24                 
1 52903U 22067A   22179.50000000 -.00000253  00000+0  00000+0 0  9991
2 52903   0.0910 270.4230 0032790 332.0800 299.3910  1.00660728    98
MEASAT 3D               
1 52904U 22067B   22179.44781802 -.00000262  00000+0  00000+0 0  9991
2 52904   0.0844 315.8785 0012210 280.1089 290.7897  1.00540720   123
ARIANE 5 DEB [SYLDA]    
1 52905U 22067C   22179.27301530  .00024077  00000+0  84186-2 0  9998
2 52905   6.0091  63.3948 7275248 182.4489  74.4116  2.28289320   114
ARIANE 5 R/B            
1 52906U 22067D   22179.27336418  .00002978  00000+0  77878-3 0  9999
2 52906   6.1821  61.4708 7279066 184.2035  83.5058  2.28638052   115
YAOGAN-35 D             
1 52907U 22068A   22179.90231481  .00005504  00000+0  21900-3 0  9998
2 52907  34.9968 245.7758 0009376 327.6236 359.6337 15.24584507   878
YAOGAN-35 E             
1 52908U 22068B   22179.60707166  .00008387  00000+0  32937-3 0  9998
2 52908  34.9958 247.6194 0009580 334.7630 175.9055 15.24925867   804
YAOGAN-35 F             
1 52909U 22068C   22179.90439815 -.00000249  00000+0 -84954-5 0  9994
2 52909  34.9959 245.7903 0008539 316.2674  12.2514 15.24062870   886
CZ-2D R/B               
1 52910U 22068D   22179.58161174  .00019740  00000+0  78327-3 0  9999
2 52910  34.9982 247.8096 0009416 318.1952  41.8016 15.24447568   803
CZ-2D DEB               
1 52911U 22068E   22179.58053999  .00013919  00000+0  54871-3 0  9995
2 52911  34.9987 247.8013 0009964 326.3426  33.6649 15.24713792   809
GAOFEN 12-3             
1 52912U 22069A   22179.86884885 -.00000057  00000+0  00000+0 0  9995
2 52912  97.9837  67.5350 0004257 192.9728 304.5708 14.89850382   180
CZ-4C R/B               
1 52913U 22069B   22179.96294945  .00003738  00000+0  23726-3 0  9991
2 52913  97.9735  67.6573 0074062  41.6584 319.0250 15.07278885   194
CAPSTONE & PHOTON R/B   
1 52914U 22070A   22180.14284104 -.00001225  38459-5  00000+0 0  9993
2 52914  39.1116 329.3822 0564201 334.0669 200.1318 14.74671096   103
ELECTRON R/B            
1 52915U 22070B   22179.56919081  .22335157  61200-5  76335-3 0  9992
2 52915  39.0963 332.3689 0012514 291.0403 156.8821 16.43603202    20
NOAA 1 [-]              
1 04793U 70106A   22179.82256031 -.00000027  00000+0  10730-3 0  9998
2 04793 101.5557 243.3442 0031072 300.4970 171.7655 12.54005766359013
NOAA 2 (ITOS-D) [-]     
1 06235U 72082A   22179.87949178 -.00000039  00000+0  44842-4 0  9997
2 06235 101.9523 162.1839 0004518  55.6995   9.4998 12.53148405273404
NOAA 3 [-]              
1 06920U 73086A   22179.91826427 -.00000052  00000+0 -48955-4 0  9994
2 06920 102.2074 161.4855 0006032 271.4494 144.6475 12.40347788202219
NOAA 4 [-]              
1 07529U 74089A   22179.85771302 -.00000036  00000+0  62271-4 0  9996
2 07529 101.9126 159.5277 0009497  81.9181 338.5660 12.53158366177970
NOAA 5 [-]              
1 09057U 76077A   22179.87256212 -.00000036  00000+0  70920-4 0  9993
2 09057 102.0980 147.7394 0010200 115.7295 299.6438 12.37771998 75154
TIROS N [-]             
1 11060U 78096A   22179.77481227  .00000066  00000+0  52445-4 0  9992
2 11060  98.6347 233.2183 0011770 109.3911 250.8538 14.18394036473216
NOAA 6 [-]              
1 11416U 79057A   22179.63832698  .00000103  00000+0  53252-4 0  9991
2 11416  98.6631 190.5109 0009464 220.8283 139.2193 14.33766503243129
